STARLINK-31668          
1 59580U 24076S   26068.20327655 -.00003044  00000+0 -10115-3 0  9991
2 59580  43.0046  11.2859 0001291 278.2147  81.8559 15.27569780106436
FLOCK 4G-25             
1 62646U 25009AP  26068.74572546  .00010373  00000+0  38902-3 0  9990
2 62646  97.4049 151.4141 0000828 316.3151  43.8023 15.27424196 63734
